      2.10          N: GNSS NAV DATA                        RINEX VERSION / TYPE
fic2rin                                 09/27/2023 00:18:12 PGM / RUN BY / DATE
                                                            END OF HEADER
16 23  9 26  6  0  0.0 -.448592938483D-03  .568434188608D-11  .000000000000D+00
     .790000000000D+02 -.368750000000D+01  .490520432145D-08  .312218042118D+01
    -.350177288055D-06  .134251848795D-01  .552460551262D-05  .515365594101D+04
     .194400000000D+06 -.726431608200D-07 -.188426302801D+01 -.244006514549D-06
     .963664162789D+00  .277187500000D+03  .794556601112D+00 -.805212111745D-08
    -.144291724615D-09  .100000000000D+01  .228100000000D+04  .000000000000D+00
     .240000000000D+01  .000000000000D+00 -.102445483208D-07  .790000000000D+02
     .187200000000D+06  .400000000000D+01
22 23  9 26  6  0  0.0  .114575028419D-03 -.727595761418D-11  .000000000000D+00
     .580000000000D+02  .331250000000D+01  .492770525870D-08  .271720082392D+01
     .689178705215D-07  .153103697812D-01  .511109828949D-05  .515360133171D+04
     .194400000000D+06  .283122062683D-06 -.188095249560D+01  .800937414169D-07
     .962933202604D+00  .279562500000D+03 -.118469871121D+01 -.802533428739D-08
    -.240367155114D-09  .100000000000D+01  .228100000000D+04  .000000000000D+00
     .240000000000D+01  .000000000000D+00 -.111758708954D-07  .580000000000D+02
     .187200000000D+06  .400000000000D+01
15 23  9 26  6  0  0.0  .811526551843D-04  .363797880709D-11  .000000000000D+00
     .780000000000D+02 -.141375000000D+03  .497985028790D-08  .111381367106D+01
    -.740028917789D-05  .154435585719D-01  .893883407116D-05  .515379026794D+04
     .194400000000D+06 -.217929482460D-06  .207252996988D+01 -.147148966789D-06
     .933233354287D+00  .201562500000D+03  .124820628034D+01 -.855285626079D-08
    -.351800368183D-09  .100000000000D+01  .228100000000D+04  .000000000000D+00
     .240000000000D+01  .000000000000D+00 -.107102096081D-07  .780000000000D+02
     .187200000000D+06  .400000000000D+01
14 23  9 26  6  0  0.0  .196073204279D-03  .112549969344D-10  .000000000000D+00
     .740000000000D+02  .390625000000D+01  .533665086436D-08 -.146544376491D+01
     .689178705215D-07  .357456877828D-02  .499747693539D-05  .515366685867D+04
     .194400000000D+06  .409781932831D-07 -.194302221522D+01 -.167638063431D-07
     .947412490276D+00  .274500000000D+03 -.294295207624D+01 -.844785188694D-08
    -.432160858377D-10  .100000000000D+01  .228100000000D+04  .000000000000D+00
     .240000000000D+01  .000000000000D+00 -.791624188423D-08  .740000000000D+02
     .187200000000D+06  .400000000000D+01
20 23  9 26  6  0  0.0  .409959349781D-03 -.193267624127D-11  .000000000000D+00
     .520000000000D+02  .328125000000D+01  .516200073234D-08  .833860771408D+00
     .266358256340D-06  .409645447508D-02  .633299350739D-06  .515362171555D+04
     .194400000000D+06 -.298023223877D-07  .998169192291D+00  .135973095894D-06
     .950049286006D+00  .361968750000D+03 -.284041357771D+01 -.880393814793D-08
    -.485734518507D-10  .100000000000D+01  .228100000000D+04  .000000000000D+00
     .240000000000D+01  .000000000000D+00 -.838190317154D-08  .520000000000D+02
     .187200000000D+06  .400000000000D+01
17 23  9 26  6  0  0.0  .723852310330D-03  .000000000000D+00  .000000000000D+00
     .910000000000D+02  .248437500000D+02  .407731269358D-08  .214611431770D+01
     .124610960484D-05  .137658844469D-01  .113248825073D-04  .515359203529D+04
     .194400000000D+06  .184401869774D-06 -.862674364936D+00 -.134110450745D-06
     .972489549648D+00  .161656250000D+03 -.139689405404D+01 -.754209987302D-08
    -.593596154234D-09  .100000000000D+01  .228100000000D+04  .000000000000D+00
     .240000000000D+01  .000000000000D+00 -.111758708954D-07  .910000000000D+02
     .187200000000D+06  .400000000000D+01
25 23  9 26  6  0  0.0  .469687394798D-03  .193267624127D-11  .000000000000D+00
     .690000000000D+02  .612500000000D+01  .528950604344D-08 -.157934436926D+01
     .471249222755D-06  .112040347885D-01  .434555113316D-05  .515366364670D+04
     .194400000000D+06  .253319740295D-06 -.198618964788D+01  .521540641785D-07
     .951874036391D+00  .288031250000D+03  .105268384558D+01 -.836391981940D-08
     .428589281035D-10  .100000000000D+01  .228100000000D+04  .000000000000D+00
     .240000000000D+01  .000000000000D+00  .558793544769D-08  .690000000000D+02
     .187200000000D+06  .400000000000D+01
13 23  9 26  6  0  0.0  .576956663281D-03  .443378667114D-11  .000000000000D+00
     .100000000000D+03 -.124343750000D+03  .386051794893D-08  .177158849823D+01
    -.641681253910D-05  .753797043581D-02  .114310532808D-04  .515368093109D+04
     .194400000000D+06 -.113621354103D-06  .235625487945D+01 -.596046447754D-07
     .970430919623D+00  .165656250000D+03  .941896257760D+00 -.780068207258D-08
    -.614311302817D-10  .100000000000D+01  .228100000000D+04  .000000000000D+00
     .240000000000D+01  .000000000000D+00 -.116415321827D-07  .100000000000D+03
     .187200000000D+06  .400000000000D+01
19 23  9 26  6  0  0.0  .376615673304D-03  .511590769747D-11  .000000000000D+00
     .188000000000D+03  .382812500000D+02  .407731269358D-08 -.205833851904D+01
     .203400850296D-05  .939375371672D-02  .120941549540D-04  .515365773773D+04
     .194400000000D+06 -.249594449997D-06 -.818218869483D+00  .558793544769D-07
     .971630810883D+00  .154406250000D+03  .242117669100D+01 -.771532137410D-08
    -.479305679291D-09  .100000000000D+01  .228100000000D+04  .000000000000D+00
     .240000000000D+01  .000000000000D+00 -.153668224812D-07  .188000000000D+03
     .187200000000D+06  .400000000000D+01
28 23  9 26  6  0  0.0 -.153030268848D-04 -.591171556152D-11  .000000000000D+00
     .199000000000D+03  .214687500000D+02  .434018078595D-08 -.209023857421D+01
     .119209289551D-05  .698571675457D-03  .103060156107D-04  .515375393486D+04
     .194400000000D+06 -.298023223877D-07 -.305339833309D+01 -.186264514923D-07
     .961932143855D+00  .176031250000D+03  .157490315916D+01 -.791068665471D-08
     .590738892360D-09  .100000000000D+01  .228100000000D+04  .000000000000D+00
     .240000000000D+01  .000000000000D+00 -.977888703346D-08  .455000000000D+03
     .187200000000D+06  .400000000000D+01
18 23  9 26  6  0  0.0 -.429512467235D-03 -.122781784739D-10  .000000000000D+00
     .139000000000D+03  .104000000000D+03  .422374736460D-08  .106971751803D+00
     .522099435329D-05  .375024776440D-02  .778213143349D-05  .515365815926D+04
     .194400000000D+06 -.130385160446D-07  .140804374416D+00  .204890966415D-07
     .974528013346D+00  .234406250000D+03 -.309870710623D+01 -.802962018020D-08
     .132148361653D-09  .100000000000D+01  .228100000000D+04  .000000000000D+00
     .240000000000D+01  .000000000000D+00 -.838190317154D-08  .395000000000D+03
     .187200000000D+06  .400000000000D+01
23 23  9 26  6  0  0.0  .736811198294D-04  .545696821064D-11  .000000000000D+00
     .192000000000D+03 -.226250000000D+02  .446982904346D-08 -.895065828913D+00
    -.123493373394D-05  .369118142407D-02  .162422657013D-05  .515367736816D+04
     .194400000000D+06  .130385160446D-06  .114052664443D+01 -.141561031342D-06
     .975300063974D+00  .360718750000D+03 -.308773311111D+01 -.830748889740D-08
    -.132505519387D-09  .100000000000D+01  .228100000000D+04  .000000000000D+00
     .240000000000D+01  .000000000000D+00 -.838190317154D-08  .704000000000D+03
     .187200000000D+06  .400000000000D+01
3  23  9 26  8  0  0.0 -.114310532808D-03  .213731254917D-10  .000000000000D+00
     .270000000000D+02 -.272812500000D+02  .447661504041D-08 -.169862474220D+00
    -.143982470036D-05  .511471950449D-02  .186823308468D-05  .515359336090D+04
     .201600000000D+06 -.186264514923D-07  .117088834614D+01  .372529029846D-08
     .980432284883D+00  .351250000000D+03  .111594538116D+01 -.843142263117D-08
    -.156792245312D-09  .100000000000D+01  .228100000000D+04  .000000000000D+00
     .240000000000D+01  .000000000000D+00  .186264514923D-08  .270000000000D+02
     .194400000000D+06  .400000000000D+01
2  23  9 26  8  0  0.0 -.549461692572D-03  .454747350886D-11  .000000000000D+00
     .640000000000D+02  .110281250000D+03  .424731977506D-08 -.257158874625D+01
     .582449138165D-05  .159991497640D-01  .803358852863D-05  .515375399971D+04
     .201600000000D+06  .726431608200D-07  .403088585458D-01  .253319740295D-06
     .967903485797D+00  .222625000000D+03 -.134088621636D+01 -.774317967737D-08
     .322156276245D-09  .100000000000D+01  .228100000000D+04  .000000000000D+00
     .240000000000D+01  .000000000000D+00 -.176951289177D-07  .640000000000D+02
     .194400000000D+06  .400000000000D+01
1  23  9 26  8  0  0.0  .164678320289D-03 -.795807864051D-12  .000000000000D+00
     .930000000000D+02  .967812500000D+02  .393337812670D-08  .103563910323D+01
     .521354377270D-05  .128747647395D-01  .808760523796D-05  .515364093971D+04
     .201600000000D+06 -.162050127983D-06  .141523432299D+00  .201165676117D-06
     .990636508604D+00  .239937500000D+03  .993337699062D+00 -.806426448041D-08
     .179293182566D-09  .100000000000D+01  .228100000000D+04  .000000000000D+00
     .240000000000D+01  .630000000000D+02  .512227416039D-08  .930000000000D+02
     .194400000000D+06  .400000000000D+01
5  23  9 26  8  0  0.0 -.144170131534D-03 -.147792889038D-11  .000000000000D+00
     .730000000000D+02 -.267187500000D+02  .479698552799D-08 -.275168587142D+01
    -.129267573357D-05  .601710681804D-02  .884756445885D-06  .515373237801D+04
     .201600000000D+06  .763684511185D-07  .112271289432D+01  .242143869400D-07
     .967467612281D+00  .366531250000D+03  .123264798858D+01 -.850749722855D-08
    -.971469037013D-10  .100000000000D+01  .228100000000D+04  .000000000000D+00
     .240000000000D+01  .000000000000D+00 -.111758708954D-07  .730000000000D+02
     .194400000000D+06  .400000000000D+01
